[{"OBJECT_NAME":"ION SCV-011","OBJECT_ID":"2023-084AB","EPOCH":"2026-03-09T22:35:16.566144","MEAN_MOTION":15.27752464,"ECCENTRICITY":0.00079323,"INCLINATION":98.1356,"RA_OF_ASC_NODE":247.1056,"ARG_OF_PERICENTER":30.3898,"MEAN_ANOMALY":329.7798,"EPHEMERIS_TYPE":0,"CLASSIFICATION_TYPE":"U","NORAD_CAT_ID":56957,"ELEMENT_SET_NO":999,"REV_AT_EPOCH":15065,"BSTAR":0.0002590454,"MEAN_MOTION_DOT":6.943e-5,"MEAN_MOTION_DDOT":0},{"OBJECT_NAME":"STARLINK-33619","OBJECT_ID":"2025-057T","EPOCH":"2026-03-09T07:18:21.579552","MEAN_MOTION":15.2759435,"ECCENTRICITY":0.0001968,"INCLINATION":43.0033,"RA_OF_ASC_NODE":32.5765,"ARG_OF_PERICENTER":250.6607,"MEAN_ANOMALY":109.4032,"EPHEMERIS_TYPE":0,"CLASSIFICATION_TYPE":"U","NORAD_CAT_ID":63324,"ELEMENT_SET_NO":999,"REV_AT_EPOCH":5572,"BSTAR":0.00092208149,"MEAN_MOTION_DOT":0.0002521,"MEAN_MOTION_DDOT":0}]
